0 IRIDIUM 33 DEB
1 35929U 97051UN  13282.79796870  .00001748  00000-0  47934-3 0  4095
2 35929 086.3532 111.4903 0037547 352.9055 007.1853 14.46180252230182
0 IRIDIUM 33 DEB
1 35929U 97051UN  13285.84237862  .00001779  00000-0  48808-3 0  4113
2 35929 086.3566 110.1845 0037246 343.8200 016.1914 14.46191841230620
0 IRIDIUM 33 DEB
1 35929U 97051UN  13287.22619442  .00001797  00000-0  49338-3 0  4125
2 35929 086.3564 109.5856 0034692 341.0999 018.9152 14.46197295230824
0 IRIDIUM 33 DEB
1 35929U 97051UN  13288.26405004  .00001878  00000-0  51595-3 0  4136
2 35929 086.3564 109.1384 0034691 337.6498 022.3905 14.46203822230975
0 IRIDIUM 33 DEB
1 35929U 97051UN  13289.23270160  .00001879  00000-0  51680-3 0  4144
2 35929 086.3570 108.7210 0031250 339.0196 020.9632 14.46207191231115
0 IRIDIUM 33 DEB
1 35929U 97051UN  13291.23921780  .00002854  00000-0  78623-3 0  4159
2 35929 086.3515 107.8487 0035223 327.3697 032.7821 14.46232127231400
0 IRIDIUM 33 DEB
1 35929U 97051UN  13291.79268235  .00002040  00000-0  56135-3 0  4161
2 35929 086.3550 107.6090 0031523 328.6567 031.1444 14.46222362231488
0 IRIDIUM 33 DEB
1 35929U 97051UN  13293.79920117  .00002986  00000-0  82256-3 0  4170
2 35929 086.3501 106.7446 0035696 319.6090 040.4937 14.46248358231770
0 IRIDIUM 33 DEB
1 35929U 97051UN  13295.18291729  .00003034  00000-0  83567-3 0  4187
2 35929 086.3501 106.1473 0035694 315.0089 044.8348 14.46257334231970
0 IRIDIUM 33 DEB
1 35929U 97051UN  13296.22073215  .00002321  00000-0  63846-3 0  4198
2 35929 086.3588 105.7051 0034319 308.7107 050.9915 14.46250982232123
